KUIPER-00064            
1 64524U 25134AA  26061.87452285 -.00006344  00000+0 -80371-3 0  9992
2 64524  51.9019 265.6573 0000771  78.0299 282.0750 14.79943235 39038
KUIPER-00065            
1 64525U 25134AB  26061.93597590  .00004045  00000+0  56827-3 0  9992
2 64525  51.9022 270.5362 0001415 207.2798 152.8090 14.79253652 38958
KUIPER-00066            
1 64526U 25134AC  26061.68128785  .00022363  00000+0  94715-3 0  9992
2 64526  51.8721 217.1657 0001623 264.8491  95.2305 15.23075730 39698
KUIPER-00069            
1 64816U 25151A   26061.89356894  .00000980  00000+0  15757-3 0  9990
2 64816  51.9029 310.6791 0000810  78.9771 281.1283 14.79931677 35757
KUIPER-00070            
1 64817U 25151B   26061.49516400  .00006682  00000+0  90567-3 0  9995
2 64817  51.9011 337.3755 0000918  92.1860 267.9207 14.79886359 35351
KUIPER-00071            
1 64818U 25151C   26061.90289410  .00005891  00000+0  79971-3 0  9997
2 64818  51.9025 333.0924 0000597 231.3926 128.6983 14.80001563 34262
KUIPER-00072            
1 64819U 25151D   26061.89086345  .00005643  00000+0  76797-3 0  9996
2 64819  51.8986 313.1342 0001318  82.3788 277.7324 14.79965013 34546
KUIPER-00073            
1 64820U 25151E   26061.93683004  .00001732  00000+0  25613-3 0  9994
2 64820  51.9032 332.9353 0001124 102.7016 257.4073 14.79937108 35459
KUIPER-00074            
1 64821U 25151F   26061.91668981  .00068657  00000+0  62793-2 0  9998
2 64821  51.9031 320.2522 0001919 232.3511 101.0629 14.94338414  3457
KUIPER-00075            
1 64822U 25151G   26061.83999557  .00055540  00000+0  13027-2 0  9999
2 64822  51.8701 255.1222 0003471 245.6580 114.4046 15.41515505 35347
KUIPER-00076            
1 64823U 25151H   26061.93953947  .00005602  00000+0  75410-3 0  9993
2 64823  51.9029 322.8529 0000388 349.0249  11.0705 14.80441254 34411
KUIPER-00077            
1 64824U 25151J   26061.94124986  .00005794  00000+0  78503-3 0  9996
2 64824  51.9027 327.9313 0001149 182.6871 177.4086 14.80117002 34347
KUIPER-00078            
1 64825U 25151K   26061.91115067  .00002465  00000+0  35220-3 0  9995
2 64825  51.9022 325.5623 0000724  95.6515 264.4530 14.79936473 34370
KUIPER-00079            
1 64826U 25151L   26061.93939849  .00000681  00000+0  11834-3 0  9993
2 64826  51.9009 330.4134 0001036  89.4371 270.6710 14.79943161 35503
KUIPER-00080            
1 64827U 25151M   26061.90575114  .00002653  00000+0  37681-3 0  9991
2 64827  51.9012 330.5690 0000823  89.1480 270.9576 14.79940862 34302
KUIPER-00082            
1 64828U 25151N   26061.95296192 -.00001761  00000+0 -20195-3 0  9996
2 64828  51.9023 317.8908 0000695  89.7386 270.3656 14.79939419 34481
