[{"OBJECT_NAME":"KUIPER-00064","OBJECT_ID":"2025-134AA","EPOCH":"2026-03-02T20:59:18.774240","MEAN_MOTION":14.79943235,"ECCENTRICITY":7.719e-5,"INCLINATION":51.9019,"RA_OF_ASC_NODE":265.6573,"ARG_OF_PERICENTER":78.0299,"MEAN_ANOMALY":282.075,"EPHEMERIS_TYPE":0,"CLASSIFICATION_TYPE":"U","NORAD_CAT_ID":64524,"ELEMENT_SET_NO":999,"REV_AT_EPOCH":3903,"BSTAR":-0.00080371256,"MEAN_MOTION_DOT":-6.344e-5,"MEAN_MOTION_DDOT":0},{"OBJECT_NAME":"KUIPER-00065","OBJECT_ID":"2025-134AB","EPOCH":"2026-03-02T22:27:48.317760","MEAN_MOTION":14.79253652,"ECCENTRICITY":0.00014151,"INCLINATION":51.9022,"RA_OF_ASC_NODE":270.5362,"ARG_OF_PERICENTER":207.2798,"MEAN_ANOMALY":152.809,"EPHEMERIS_TYPE":0,"CLASSIFICATION_TYPE":"U","NORAD_CAT_ID":64525,"ELEMENT_SET_NO":999,"REV_AT_EPOCH":3895,"BSTAR":0.00056826559,"MEAN_MOTION_DOT":4.045e-5,"MEAN_MOTION_DDOT":0},{"OBJECT_NAME":"KUIPER-00066","OBJECT_ID":"2025-134AC","EPOCH":"2026-03-02T16:21:03.270240","MEAN_MOTION":15.2307573,"ECCENTRICITY":0.00016232,"INCLINATION":51.8721,"RA_OF_ASC_NODE":217.1657,"ARG_OF_PERICENTER":264.8491,"MEAN_ANOMALY":95.2305,"EPHEMERIS_TYPE":0,"CLASSIFICATION_TYPE":"U","NORAD_CAT_ID":64526,"ELEMENT_SET_NO":999,"REV_AT_EPOCH":3969,"BSTAR":0.00094715101,"MEAN_MOTION_DOT":0.00022363,"MEAN_MOTION_DDOT":0},{"OBJECT_NAME":"KUIPER-00069","OBJECT_ID":"2025-151A","EPOCH":"2026-03-02T21:26:44.356416","MEAN_MOTION":14.79931677,"ECCENTRICITY":8.102e-5,"INCLINATION":51.9029,"RA_OF_ASC_NODE":310.6791,"ARG_OF_PERICENTER":78.9771,"MEAN_ANOMALY":281.1283,"EPHEMERIS_TYPE":0,"CLASSIFICATION_TYPE":"U","NORAD_CAT_ID":64816,"ELEMENT_SET_NO":999,"REV_AT_EPOCH":3575,"BSTAR":0.00015756716,"MEAN_MOTION_DOT":9.8e-6,"MEAN_MOTION_DDOT":0},{"OBJECT_NAME":"KUIPER-00070","OBJECT_ID":"2025-151B","EPOCH":"2026-03-02T11:53:02.169600","MEAN_MOTION":14.79886359,"ECCENTRICITY":9.18e-5,"INCLINATION":51.9011,"RA_OF_ASC_NODE":337.3755,"ARG_OF_PERICENTER":92.186,"MEAN_ANOMALY":267.9207,"EPHEMERIS_TYPE":0,"CLASSIFICATION_TYPE":"U","NORAD_CAT_ID":64817,"ELEMENT_SET_NO":999,"REV_AT_EPOCH":3535,"BSTAR":0.00090566932,"MEAN_MOTION_DOT":6.682e-5,"MEAN_MOTION_DDOT":0},{"OBJECT_NAME":"KUIPER-00071","OBJECT_ID":"2025-151C","EPOCH":"2026-03-02T21:40:10.050240","MEAN_MOTION":14.80001563,"ECCENTRICITY":5.976e-5,"INCLINATION":51.9025,"RA_OF_ASC_NODE":333.0924,"ARG_OF_PERICENTER":231.3926,"MEAN_ANOMALY":128.6983,"EPHEMERIS_TYPE":0,"CLASSIFICATION_TYPE":"U","NORAD_CAT_ID":64818,"ELEMENT_SET_NO":999,"REV_AT_EPOCH":3426,"BSTAR":0.00079971416,"MEAN_MOTION_DOT":5.891e-5,"MEAN_MOTION_DDOT":0},{"OBJECT_NAME":"KUIPER-00072","OBJECT_ID":"2025-151D","EPOCH":"2026-03-02T21:22:50.602080","MEAN_MOTION":14.79965013,"ECCENTRICITY":0.00013183,"INCLINATION":51.8986,"RA_OF_ASC_NODE":313.1342,"ARG_OF_PERICENTER":82.3788,"MEAN_ANOMALY":277.7324,"EPHEMERIS_TYPE":0,"CLASSIFICATION_TYPE":"U","NORAD_CAT_ID":64819,"ELEMENT_SET_NO":999,"REV_AT_EPOCH":3454,"BSTAR":0.00076797049,"MEAN_MOTION_DOT":5.643e-5,"MEAN_MOTION_DDOT":0},{"OBJECT_NAME":"KUIPER-00073","OBJECT_ID":"2025-151E","EPOCH":"2026-03-02T22:29:02.115456","MEAN_MOTION":14.79937108,"ECCENTRICITY":0.00011248,"INCLINATION":51.9032,"RA_OF_ASC_NODE":332.9353,"ARG_OF_PERICENTER":102.7016,"MEAN_ANOMALY":257.4073,"EPHEMERIS_TYPE":0,"CLASSIFICATION_TYPE":"U","NORAD_CAT_ID":64820,"ELEMENT_SET_NO":999,"REV_AT_EPOCH":3545,"BSTAR":0.00025613358,"MEAN_MOTION_DOT":1.732e-5,"MEAN_MOTION_DDOT":0},{"OBJECT_NAME":"KUIPER-00074","OBJECT_ID":"2025-151F","EPOCH":"2026-03-02T22:00:01.999584","MEAN_MOTION":14.94338414,"ECCENTRICITY":0.00019191,"INCLINATION":51.9031,"RA_OF_ASC_NODE":320.2522,"ARG_OF_PERICENTER":232.3511,"MEAN_ANOMALY":101.0629,"EPHEMERIS_TYPE":0,"CLASSIFICATION_TYPE":"U","NORAD_CAT_ID":64821,"ELEMENT_SET_NO":999,"REV_AT_EPOCH":345,"BSTAR":0.0062793359,"MEAN_MOTION_DOT":0.00068657,"MEAN_MOTION_DDOT":0},{"OBJECT_NAME":"KUIPER-00075","OBJECT_ID":"2025-151G","EPOCH":"2026-03-02T20:09:35.617248","MEAN_MOTION":15.41515505,"ECCENTRICITY":0.00034713,"INCLINATION":51.8701,"RA_OF_ASC_NODE":255.1222,"ARG_OF_PERICENTER":245.658,"MEAN_ANOMALY":114.4046,"EPHEMERIS_TYPE":0,"CLASSIFICATION_TYPE":"U","NORAD_CAT_ID":64822,"ELEMENT_SET_NO":999,"REV_AT_EPOCH":3534,"BSTAR":0.0013027239,"MEAN_MOTION_DOT":0.0005554,"MEAN_MOTION_DDOT":0},{"OBJECT_NAME":"KUIPER-00076","OBJECT_ID":"2025-151H","EPOCH":"2026-03-02T22:32:56.210208","MEAN_MOTION":14.80441254,"ECCENTRICITY":3.886e-5,"INCLINATION":51.9029,"RA_OF_ASC_NODE":322.8529,"ARG_OF_PERICENTER":349.0249,"MEAN_ANOMALY":11.0705,"EPHEMERIS_TYPE":0,"CLASSIFICATION_TYPE":"U","NORAD_CAT_ID":64823,"ELEMENT_SET_NO":999,"REV_AT_EPOCH":3441,"BSTAR":0.00075409895,"MEAN_MOTION_DOT":5.602e-5,"MEAN_MOTION_DDOT":0},{"OBJECT_NAME":"KUIPER-00077","OBJECT_ID":"2025-151J","EPOCH":"2026-03-02T22:35:23.987904","MEAN_MOTION":14.80117002,"ECCENTRICITY":0.00011494,"INCLINATION":51.9027,"RA_OF_ASC_NODE":327.9313,"ARG_OF_PERICENTER":182.6871,"MEAN_ANOMALY":177.4086,"EPHEMERIS_TYPE":0,"CLASSIFICATION_TYPE":"U","NORAD_CAT_ID":64824,"ELEMENT_SET_NO":999,"REV_AT_EPOCH":3434,"BSTAR":0.00078502796,"MEAN_MOTION_DOT":5.794e-5,"MEAN_MOTION_DDOT":0},{"OBJECT_NAME":"KUIPER-00078","OBJECT_ID":"2025-151K","EPOCH":"2026-03-02T21:52:03.417888","MEAN_MOTION":14.79936473,"ECCENTRICITY":7.241e-5,"INCLINATION":51.9022,"RA_OF_ASC_NODE":325.5623,"ARG_OF_PERICENTER":95.6515,"MEAN_ANOMALY":264.453,"EPHEMERIS_TYPE":0,"CLASSIFICATION_TYPE":"U","NORAD_CAT_ID":64825,"ELEMENT_SET_NO":999,"REV_AT_EPOCH":3437,"BSTAR":0.00035219696,"MEAN_MOTION_DOT":2.465e-5,"MEAN_MOTION_DDOT":0},{"OBJECT_NAME":"KUIPER-00079","OBJECT_ID":"2025-151L","EPOCH":"2026-03-02T22:32:44.029536","MEAN_MOTION":14.79943161,"ECCENTRICITY":0.00010363,"INCLINATION":51.9009,"RA_OF_ASC_NODE":330.4134,"ARG_OF_PERICENTER":89.4371,"MEAN_ANOMALY":270.671,"EPHEMERIS_TYPE":0,"CLASSIFICATION_TYPE":"U","NORAD_CAT_ID":64826,"ELEMENT_SET_NO":999,"REV_AT_EPOCH":3550,"BSTAR":0.00011834243,"MEAN_MOTION_DOT":6.81e-6,"MEAN_MOTION_DDOT":0},{"OBJECT_NAME":"KUIPER-00080","OBJECT_ID":"2025-151M","EPOCH":"2026-03-02T21:44:16.898496","MEAN_MOTION":14.79940862,"ECCENTRICITY":8.232e-5,"INCLINATION":51.9012,"RA_OF_ASC_NODE":330.569,"ARG_OF_PERICENTER":89.148,"MEAN_ANOMALY":270.9576,"EPHEMERIS_TYPE":0,"CLASSIFICATION_TYPE":"U","NORAD_CAT_ID":64827,"ELEMENT_SET_NO":999,"REV_AT_EPOCH":3430,"BSTAR":0.00037680863,"MEAN_MOTION_DOT":2.653e-5,"MEAN_MOTION_DDOT":0},{"OBJECT_NAME":"KUIPER-00082","OBJECT_ID":"2025-151N","EPOCH":"2026-03-02T22:52:15.909888","MEAN_MOTION":14.79939419,"ECCENTRICITY":6.958e-5,"INCLINATION":51.9023,"RA_OF_ASC_NODE":317.8908,"ARG_OF_PERICENTER":89.7386,"MEAN_ANOMALY":270.3656,"EPHEMERIS_TYPE":0,"CLASSIFICATION_TYPE":"U","NORAD_CAT_ID":64828,"ELEMENT_SET_NO":999,"REV_AT_EPOCH":3448,"BSTAR":-0.00020195493,"MEAN_MOTION_DOT":-1.761e-5,"MEAN_MOTION_DDOT":0}]
